NEXTSAT-1               
1 43811U 18099BF  26068.68342010  .00004546  00000+0  29857-3 0  9992
2 43811  97.4203 114.8574 0011320 323.9610  36.0854 15.08057555396886
STARLINK-3734           
1 52112U 22029AA  26068.35772408  .00001293  00000+0  99273-4 0  9992
2 52112  53.2172  80.6094 0001264  88.4656 271.6481 15.08843024220738
